[{"OBJECT_NAME":"STARLINK-30277","OBJECT_ID":"2023-122P","EPOCH":"2026-03-09T01:53:04.350912","MEAN_MOTION":15.27517907,"ECCENTRICITY":0.00012176,"INCLINATION":43.002,"RA_OF_ASC_NODE":313.8516,"ARG_OF_PERICENTER":270.3768,"MEAN_ANOMALY":89.6944,"EPHEMERIS_TYPE":0,"CLASSIFICATION_TYPE":"U","NORAD_CAT_ID":57645,"ELEMENT_SET_NO":999,"REV_AT_EPOCH":14378,"BSTAR":-0.00012984328,"MEAN_MOTION_DOT":-3.826e-5,"MEAN_MOTION_DDOT":0},{"OBJECT_NAME":"FENGYUN 1C DEB","OBJECT_ID":"1999-025EGV","EPOCH":"2026-02-28T16:17:34.017216","MEAN_MOTION":14.9983724,"ECCENTRICITY":0.01801634,"INCLINATION":98.631,"RA_OF_ASC_NODE":214.8944,"ARG_OF_PERICENTER":42.5154,"MEAN_ANOMALY":318.9857,"EPHEMERIS_TYPE":0,"CLASSIFICATION_TYPE":"U","NORAD_CAT_ID":37427,"ELEMENT_SET_NO":999,"REV_AT_EPOCH":61490,"BSTAR":0.00040638516,"MEAN_MOTION_DOT":7.014e-5,"MEAN_MOTION_DDOT":0}]
